NORAD_CAT_ID,OBJECT_NAME,OBJECT_TYPE,EPOCH,MEAN_MOTION,ECCENTRICITY,INCLINATION,RA_OF_ASC_NODE,ARG_OF_PERICENTER,MEAN_ANOMALY,BSTAR,MEAN_MOTION_DOT,MEAN_MOTION_DDOT,TLE_LINE0,TLE_LINE1,TLE_LINE2,SEMIMAJOR_AXIS,PERIOD,APOGEE,PERIGEE,DECAYED
55762.0,STARLINK-5603,PAYLOAD,2024-03-06 19:40:58,14.9832878,0.0002638,69.9983,272.3884,262.4442,97.6417,-7.8401e-05,-1.028e-05,0.0,0 STARLINK-5603,1 55762U 23028X   24066.82012035 -.00001028  00000-0 -78401-4 0  9996,2 55762  69.9983 272.3884 0002638 262.4442  97.6417 14.98328780 56755,6950.197,96.107,573.895,570.228,0.0
55762.0,STARLINK-5603,PAYLOAD,2024-03-07 14:54:34,14.98325334,0.0002894,69.9975,270.3675,268.1789,91.9039,0.00010814,1.197e-05,0.0,0 STARLINK-5603,1 55762U 23028X   24067.62123819  .00001197  00000-0  10814-3 0  9996,2 55762  69.9975 270.3675 0002894 268.1789  91.9039 14.98325334 56875,6950.207,96.107,574.084,570.061,0.0
55762.0,STARLINK-5603,PAYLOAD,2024-03-08 06:55:55,14.98327948,0.0002949,69.9974,268.6835,261.0705,99.012,5.5717e-05,5.72e-06,0.0,0 STARLINK-5603,1 55762U 23028X   24068.28883833  .00000572  00000-0  55717-4 0  9996,2 55762  69.9974 268.6835 0002949 261.0705  99.0120 14.98327948 56977,6950.199,96.107,574.114,570.015,0.0
55762.0,STARLINK-5603,PAYLOAD,2024-03-08 13:20:28,14.98328937,0.00029,69.9973,268.0102,268.1527,91.93,1.4363e-05,7.8e-07,0.0,0 STARLINK-5603,1 55762U 23028X   24068.55587975  .00000078  00000-0  14363-4 0  9997,2 55762  69.9973 268.0102 0002900 268.1527  91.9300 14.98328937 57010,6950.196,96.107,574.077,570.046,0.0
55762.0,STARLINK-5603,PAYLOAD,2024-03-08 19:45:00,14.98329572,0.0002899,69.9973,267.337,268.5149,91.5678,2.0099e-05,1.47e-06,0.0,0 STARLINK-5603,1 55762U 23028X   24068.82291916  .00000147  00000-0  20099-4 0  9994,2 55762  69.9973 267.3370 0002899 268.5149  91.5678 14.98329572 57054,6950.194,96.107,574.074,570.044,0.0
55762.0,STARLINK-5603,PAYLOAD,2024-03-09 06:57:56,14.98328712,0.0002789,69.9977,266.1585,269.7716,90.3123,5.6321e-05,5.79e-06,0.0,0 STARLINK-5603,1 55762U 23028X   24069.29023882  .00000579  00000-0  56321-4 0  9997,2 55762  69.9977 266.1585 0002789 269.7716  90.3123 14.98328712 57129,6950.197,96.107,574.0,570.123,0.0
55762.0,STARLINK-5603,PAYLOAD,2024-03-09 13:22:28,14.98325655,0.000298,69.9975,265.4852,267.5117,92.57,0.00013543,1.523e-05,0.0,0 STARLINK-5603,1 55762U 23028X   24069.55727726  .00001523  00000-0  13543-3 0  9992,2 55762  69.9975 265.4852 0002980 267.5117  92.5700 14.98325655 57162,6950.206,96.107,574.142,570.0,0.0
55762.0,STARLINK-5603,PAYLOAD,2024-03-09 19:47:00,14.9833474,0.0002864,69.9975,264.8119,268.9962,91.0869,1.134e-05,4.2e-07,0.0,0 STARLINK-5603,1 55762U 23028X   24069.82431455  .00000042  00000-0  11340-4 0  9992,2 55762  69.9975 264.8119 0002864 268.9962  91.0869 14.98334740 57205,6950.178,96.107,574.034,570.053,0.0
55762.0,STARLINK-5603,PAYLOAD,2024-03-10 19:49:01,14.9832939,0.0003277,70.0,262.2873,271.1335,88.9449,-9.0076e-06,-2.01e-06,0.0,0 STARLINK-5603,1 55762U 23028X   24070.82571685 -.00000201  00000-0 -90076-5 0  9997,2 55762  70.0000 262.2873 0003277 271.1335  88.9449 14.98329390 57355,6950.195,96.107,574.337,569.782,0.0
55762.0,STARLINK-5603,PAYLOAD,2024-03-10 21:25:10,14.98328783,0.0003296,69.9999,262.119,271.0263,89.0518,-1.5747e-05,-2.81e-06,0.0,0 STARLINK-5603,1 55762U 23028X   24070.89247738 -.00000281  00000-0 -15747-4 0  9992,2 55762  69.9999 262.1190 0003296 271.0263  89.0518 14.98328783 57365,6950.197,96.107,574.352,569.771,0.0
55762.0,STARLINK-5603,PAYLOAD,2024-03-11 05:25:50,14.983324,0.0003437,69.9998,261.2773,271.058,89.0185,-6.8967e-05,-9.16e-06,0.0,0 STARLINK-5603,1 55762U 23028X   24071.22627612 -.00000916  00000-0 -68967-4 0  9990,2 55762  69.9998 261.2773 0003437 271.0580  89.0185 14.98332400 57417,6950.185,96.107,574.439,569.662,0.0
55762.0,STARLINK-5603,PAYLOAD,2024-03-12 11:52:23,14.98356706,0.0003161,69.999,258.0774,276.902,83.1779,-0.00040525,-4.928e-05,0.0,0 STARLINK-5603,1 55762U 23028X   24072.49471549 -.00004928  00000-0 -40525-3 0  9992,2 55762  69.9990 258.0774 0003161 276.9020  83.1779 14.98356706 57601,6950.11,96.105,574.172,569.778,0.0
55762.0,STARLINK-5603,PAYLOAD,2024-03-12 23:05:19,14.98331097,0.0003065,69.9991,256.8996,269.7883,90.2925,8.8334e-05,9.61e-06,0.0,0 STARLINK-5603,1 55762U 23028X   24072.96202968  .00000961  00000-0  88334-4 0  9993,2 55762  69.9991 256.8996 0003065 269.7883  90.2925 14.98331097 57679,6950.189,96.107,574.185,569.924,0.0
55762.0,STARLINK-5603,PAYLOAD,2024-03-13 11:54:24,14.98327738,0.0002941,69.9995,255.5512,271.2376,88.8447,-1.7797e-05,-3.05e-06,0.0,0 STARLINK-5603,1 55762U 23028X   24073.49611481 -.00000305  00000-0 -17797-4 0  9995,2 55762  69.9995 255.5512 0002941 271.2376  88.8447 14.98327738 57758,6950.2,96.107,574.109,570.021,0.0
55762.0,STARLINK-5603,PAYLOAD,2024-03-13 21:31:12,14.98331233,0.00029,69.9997,254.5402,271.5654,88.5173,-2.3119e-05,-3.69e-06,0.0,0 STARLINK-5603,1 55762U 23028X   24073.89667319 -.00000369  00000-0 -23119-4 0  9995,2 55762  69.9997 254.5402 0002900 271.5654  88.5173 14.98331233 57819,6950.189,96.107,574.07,570.039,0.0
55762.0,STARLINK-5603,PAYLOAD,2024-03-14 05:31:52,14.98193948,0.0002145,69.9994,253.7016,263.375,96.7165,0.0020344,0.00024179,0.0,0 STARLINK-5603,1 55762U 23028X   24074.23046708  .00024179  00000-0  20344-2 0  9995,2 55762  69.9994 253.7016 0002145 263.3750  96.7165 14.98193948 57861,6950.614,96.116,573.97,570.988,0.0
55762.0,STARLINK-5603,PAYLOAD,2024-03-14 11:56:25,14.98294658,0.0002763,69.999,253.0286,265.483,94.6014,0.00054483,6.408e-05,0.0,0 STARLINK-5603,1 55762U 23028X   24074.49751558  .00006408  00000-0  54483-3 0  9996,2 55762  69.9990 253.0286 0002763 265.4830  94.6014 14.98294658 57902,6950.302,96.109,574.088,570.247,0.0
55762.0,STARLINK-5603,PAYLOAD,2024-03-14 21:33:14,14.98268626,0.0002584,69.9997,252.0187,258.1914,101.8955,0.0010101,0.00011961,0.0,0 STARLINK-5603,1 55762U 23028X   24074.89808874  .00011961  00000-0  10101-2 0  9992,2 55762  69.9997 252.0187 0002584 258.1914 101.8955 14.98268626 57968,6950.383,96.111,574.044,570.452,0.0
55762.0,STARLINK-5603,PAYLOAD,2024-03-15 11:58:26,14.98323897,0.0003192,70.0007,250.5012,266.5404,93.539,2.7652e-05,2.37e-06,0.0,0 STARLINK-5603,1 55762U 23028X   24075.49891476  .00000237  00000-0  27652-4 0  9994,2 55762  70.0007 250.5012 0003192 266.5404  93.5390 14.98323897 58059,6950.212,96.107,574.295,569.858,0.0
55762.0,STARLINK-5603,PAYLOAD,2024-03-16 12:00:29,14.98306266,0.0003269,70.0002,247.9761,263.6884,96.3903,-0.0001946,-2.413e-05,0.0,0 STARLINK-5603,1 55762U 23028X   24076.50034110 -.00002413  00000-0 -19460-3 0  9998,2 55762  70.0002 247.9761 0003269 263.6884  96.3903 14.98306266 58209,6950.266,96.109,574.403,569.859,0.0
55762.0,STARLINK-5603,PAYLOAD,2024-03-16 13:36:37,14.98312409,0.0003496,70.0008,247.8095,281.6481,78.4285,-0.00012991,-1.642e-05,0.0,0 STARLINK-5603,1 55762U 23028X   24076.56709840 -.00001642  00000-0 -12991-3 0  9998,2 55762  70.0008 247.8095 0003496 281.6481  78.4285 14.98312409 58210,6950.247,96.108,574.542,569.682,0.0
55762.0,STARLINK-5603,PAYLOAD,2024-03-16 20:01:09,14.98317144,0.0002127,70.0022,247.1374,248.5629,111.5304,-3.9297e-05,-5.61e-06,0.0,0 STARLINK-5603,1 55762U 23028X   24076.83413395 -.00000561  00000-0 -39297-4 0  9993,2 55762  70.0022 247.1374 0002127 248.5629 111.5304 14.98317144 58251,6950.233,96.108,573.576,570.619,0.0
55762.0,STARLINK-5603,PAYLOAD,2024-03-16 21:37:16,14.9832924,0.0002307,70.0006,246.9659,260.2234,99.8665,-0.00010407,-1.334e-05,0.0,0 STARLINK-5603,1 55762U 23028X   24076.90088841 -.00001334  00000-0 -10407-3 0  9995,2 55762  70.0006 246.9659 0002307 260.2234  99.8665 14.98329240 58268,6950.195,96.107,573.664,570.457,0.0
55762.0,STARLINK-5603,PAYLOAD,2024-03-17 13:38:37,14.98321352,0.0002852,69.9999,245.2859,264.4366,95.6467,0.00026757,3.1e-05,0.0,0 STARLINK-5603,1 55762U 23028X   24077.56848419  .00003100  00000-0  26757-3 0  9999,2 55762  69.9999 245.2859 0002852 264.4366  95.6467 14.98321352 58368,6950.22,96.108,574.067,570.102,0.0
55762.0,STARLINK-5603,PAYLOAD,2024-03-17 20:03:09,14.98322463,0.0002869,70.0,244.6127,263.8619,96.2213,0.00025775,2.983e-05,0.0,0 STARLINK-5603,1 55762U 23028X   24077.83552521  .00002983  00000-0  25775-3 0  9992,2 55762  70.0000 244.6127 0002869 263.8619  96.2213 14.98322463 58402,6950.216,96.107,574.075,570.087,0.0
55762.0,STARLINK-5603,PAYLOAD,2024-03-18 12:04:29,14.98342844,0.000314,69.9994,242.9294,264.5407,95.5394,0.00012986,1.457e-05,0.0,0 STARLINK-5603,1 55762U 23028X   24078.50311581  .00001457  00000-0  12986-3 0  9991,2 55762  69.9994 242.9294 0003140 264.5407  95.5394 14.98342844 58501,6950.153,96.106,574.201,569.836,0.0
55762.0,STARLINK-5603,PAYLOAD,2024-03-19 12:06:29,14.98345725,0.0003565,69.999,240.4034,277.2377,82.8376,-5.029e-06,-1.53e-06,0.0,0 STARLINK-5603,1 55762U 23028X   24079.50450988 -.00000153  00000-0 -50290-5 0  9993,2 55762  69.9990 240.4034 0003565 277.2377  82.8376 14.98345725 58656,6950.144,96.106,574.487,569.532,0.0
55762.0,STARLINK-5603,PAYLOAD,2024-03-19 20:07:09,14.98345115,0.0003388,69.9989,239.5618,272.4852,87.5919,9.6087e-08,-9.2e-07,0.0,0 STARLINK-5603,1 55762U 23028X   24079.83830618 -.00000092  00000-0  96087-7 0  9998,2 55762  69.9989 239.5618 0003388 272.4852  87.5919 14.98345115 58703,6950.146,96.106,574.366,569.656,0.0
55762.0,STARLINK-5603,PAYLOAD,2024-03-20 10:32:22,14.98336169,0.0002551,70.0011,238.0497,250.5392,109.5492,-0.00013354,-1.686e-05,0.0,0 STARLINK-5603,1 55762U 23028X   24080.43915148 -.00001686  00000-0 -13354-3 0  9991,2 55762  70.0011 238.0497 0002551 250.5392 109.5492 14.98336169 58797,6950.174,96.107,573.812,570.266,0.0
55762.0,STARLINK-5603,PAYLOAD,2024-03-20 13:44:38,14.98334942,0.0002595,70.001,237.7132,251.7758,108.3119,-0.00014087,-1.774e-05,0.0,0 STARLINK-5603,1 55762U 23028X   24080.57267185 -.00001774  00000-0 -14087-3 0  9999,2 55762  70.0010 237.7132 0002595 251.7758 108.3119 14.98334942 58818,6950.178,96.107,573.846,570.239,0.0
